{"type": "Feature", "properties": {"name": "City of Los Angeles (approximate outline)", "note": "Hand-traced approximation. Replace with data/la_city.geojson from LA GeoHub for exact limits."}, "geometry": {"type": "Polygon", "coordinates": [[[-118.668, 34.168], [-118.66, 34.235], [-118.635, 34.29], [-118.6, 34.305], [-118.56, 34.325], [-118.51, 34.33], [-118.48, 34.34], [-118.44, 34.345], [-118.4, 34.33], [-118.375, 34.305], [-118.34, 34.3], [-118.27, 34.285], [-118.245, 34.255], [-118.29, 34.235], [-118.365, 34.22], [-118.37, 34.19], [-118.36, 34.155], [-118.335, 34.135], [-118.3, 34.15], [-118.275, 34.135], [-118.255, 34.125], [-118.245, 34.145], [-118.215, 34.16], [-118.185, 34.15], [-118.165, 34.125], [-118.18, 34.11], [-118.16, 34.095], [-118.155, 34.07], [-118.17, 34.055], [-118.19, 34.04], [-118.19, 34.015], [-118.225, 34.02], [-118.25, 34.01], [-118.245, 33.998], [-118.245, 33.96], [-118.23, 33.95], [-118.235, 33.925], [-118.275, 33.925], [-118.28, 33.905], [-118.28, 33.85], [-118.28, 33.82], [-118.285, 33.8], [-118.255, 33.795], [-118.235, 33.785], [-118.235, 33.765], [-118.245, 33.745], [-118.265, 33.72], [-118.29, 33.7], [-118.32, 33.71], [-118.325, 33.745], [-118.32, 33.79], [-118.3, 33.805], [-118.3, 33.86], [-118.3, 33.925], [-118.32, 33.935], [-118.32, 33.975], [-118.37, 33.985], [-118.37, 33.96], [-118.395, 33.93], [-118.455, 33.925], [-118.455, 33.96], [-118.47, 33.985], [-118.48, 34.01], [-118.45, 34.02], [-118.45, 34.05], [-118.52, 34.04], [-118.565, 34.04], [-118.59, 34.065], [-118.585, 34.11], [-118.63, 34.15], [-118.66, 34.16], [-118.668, 34.168]], [[-118.435, 34.07], [-118.395, 34.062], [-118.38, 34.075], [-118.34, 34.082], [-118.34, 34.1], [-118.375, 34.1], [-118.4, 34.115], [-118.43, 34.1], [-118.435, 34.07]], [[-118.425, 34.025], [-118.375, 34.025], [-118.37, 33.995], [-118.405, 33.99], [-118.43, 34.005], [-118.425, 34.025]], [[-118.455, 34.275], [-118.425, 34.27], [-118.42, 34.295], [-118.45, 34.3], [-118.455, 34.275]]]}}