{"type":"FeatureCollection","features":[{"type":"Feature","id":"41","properties":{"name":"Oregon"},"geometry":{"type":"Polygon","coordinates":[[[-123.54917604936048,46.25942743766437],[-123.47380087550874,46.26801803457034],[-123.42714005360054,46.22936034849348],[-123.43072934759347,46.182112065510644],[-123.3697113497135,46.14603155850558],[-123.27997899988999,46.14517249881498],[-123.16512159211592,46.188984543035424],[-123.11487147621474,46.185548304273034],[-122.90310313063131,46.083320201092],[-122.87797807268072,46.030917559965594],[-122.8133707808078,45.961333725027245],[-122.80978148681487,45.91236732266322],[-122.78465642886428,45.86769621875218],[-122.7954243108431,45.81013921948219],[-122.75953137091369,45.734541966709656],[-122.77388854688546,45.69932051939519],[-122.76312066490664,45.65636753486534],[-122.64467396313962,45.60997831157311],[-122.47956643946438,45.57991122240222],[-122.44008420554205,45.56358908828088],[-122.37906620766208,45.57561592394923],[-122.33240538575384,45.54812601385013],[-122.26779809388094,45.54383071539715],[-122.18524433204331,45.577334043330424],[-122.1026905702057,45.58334746116461],[-121.90886869458694,45.654649415484144],[-121.86579716667165,45.69330710156101],[-121.81195775677756,45.70705205661056],[-121.73658258292582,45.69416616125161],[-121.63249305713057,45.704474877538765],[-121.53199282532825,45.726810429494286],[-121.4637962394624,45.70103863877638],[-121.40277824158241,45.69330710156101],[-121.33817094970948,45.70533393722936],[-121.21613495394953,45.67097154960549],[-121.18383130801308,45.60654207281072],[-121.1335811921119,45.60997831157311],[-121.06538460624606,45.652931296102956],[-120.9433486104861,45.65636753486534],[-120.89668778857788,45.64262257981579],[-120.85720555465554,45.67183060929609],[-120.68850873698736,45.715642653516525],[-120.63466932709326,45.74570974268742],[-120.55929415324152,45.73797820547205],[-120.48391897938978,45.69416616125161],[-120.4049545115451,45.69932051939519],[-120.28291851578516,45.72165607135071],[-120.21113263592636,45.72595136980369],[-120.17165040200402,45.76203187680876],[-120.07115017020169,45.785226488454875],[-119.96706064440644,45.82474323422233],[-119.8019531207312,45.84793784586845],[-119.66914924299243,45.85652844277442],[-119.6224884210842,45.90549484513844],[-119.57223830518305,45.92525321802217],[-119.48609524935249,45.90635390482904],[-119.25638043380434,45.93985723276232],[-119.19536243592435,45.92783039709396],[-119.1271658500585,45.93298475523755],[-119.02666561825617,45.969065262242616],[-118.98718338433383,45.999991411104105],[-118.40212846348463,46.0008504707947],[-117.50480496524965,45.99827329172291],[-116.9161607504075,45.99569611265112],[-116.85873204652046,45.90377672575725],[-116.81924981259812,45.880582114111135],[-116.76182110871108,45.816152637316364],[-116.69721381683817,45.82044793576935],[-116.66132087690876,45.7800721303113],[-116.5931242910429,45.7783540109301],[-116.53569558715586,45.73711914578145],[-116.53569558715586,45.691588982179816],[-116.48903476524765,45.649495057340566],[-116.46390970729706,45.603105834048336],[-116.55005276312762,45.51032738746387],[-116.55364205712056,45.46307910448104],[-116.58953499704997,45.44332073159731],[-116.67567805288053,45.314461778007775],[-116.67208875888758,45.283535629146286],[-116.70439240482403,45.23972358492584],[-116.72951746277462,45.1400726608166],[-116.77617828468284,45.10571027319273],[-116.79771404864047,45.06018010959109],[-116.84796416454164,45.022381483204825],[-116.85873204652046,44.97856943898438],[-116.83360698856987,44.92874397692976],[-116.86591063450633,44.87032791796917],[-116.93051792637925,44.80503938148381],[-116.93051792637925,44.786999127981275],[-117.04537533415333,44.744905203142025],[-117.09562545005448,44.66501265191651],[-117.12433980199802,44.58168386192861],[-117.16023274192742,44.52498592234922],[-117.22484003380033,44.483751057200564],[-117.21407215182151,44.42705311762117],[-117.24278650376503,44.39612696875968],[-117.18894709387092,44.336851850108495],[-117.21766144581446,44.28874450743507],[-117.17100062390622,44.25867741826418],[-117.10280403804038,44.2801539105291],[-117.04537533415333,44.22946938878388],[-116.97358945429454,44.239778105071046],[-116.96641086630865,44.194247941469406],[-116.90180357443575,44.17964392672926],[-116.8982142804428,44.153013076320754],[-116.9341072203722,44.09975137550375],[-116.97717874828749,44.0851473607636],[-116.97358945429454,44.04906685375853],[-116.9341072203722,44.02157694365943],[-116.93769651436514,43.98463737696376],[-116.98076804228042,43.91505354202541],[-116.98076804228042,43.86866431873318],[-117.02025027620274,43.859214662136615],[-117.02742886418864,43.8085301403914],[-117.02742886418864,42.00020949168491],[-117.62325166701666,41.99849137230372],[-118.60312892708927,41.99419607385073],[-118.69645057090571,41.99161889477894],[-119.2097196118961,41.99333701416013],[-119.9993642903429,41.99505513354133],[-119.9993642903429,41.99419607385073],[-119.9993642903429,41.99505513354133],[-120.32957933769336,41.99333701416013],[-121.03667025430254,41.99333701416013],[-121.44584976949768,41.99677325292252],[-121.99860104441044,42.003645730447296],[-122.16011927409274,42.007941028900284],[-122.50110220342202,42.00880008859088],[-122.6339060811608,42.004504790137894],[-123.0466748903489,42.0027866707567],[-123.14717512215121,42.00965914828148],[-123.34817558575585,41.999350431994316],[-123.62455122321222,42.00020949168491],[-123.65685486914867,41.99505513354133],[-124.21319543805437,41.99849137230372],[-124.28857061190611,42.045739655286546],[-124.34241002180022,42.092987938269374],[-124.36753507975078,42.15226305692056],[-124.36035649176492,42.18061202671026],[-124.41060660766607,42.250195861648606],[-124.40342801968019,42.27768577174771],[-124.42855307763077,42.331806532255314],[-124.43573166561666,42.44004805327052],[-124.38907084370842,42.56632982778827],[-124.41419590165901,42.65824921468214],[-124.47521389953899,42.73298740776407],[-124.51469613346133,42.734705527145266],[-124.55417836738366,42.84036986908868],[-124.50033895748956,42.9176852412424],[-124.45726742957429,43.00015497153971],[-124.43573166561666,43.07145692585925],[-124.43573166561666,43.11612802977029],[-124.40342801968019,43.184852805018046],[-124.38189225572255,43.26989971438714],[-124.40342801968019,43.305980221392204],[-124.34241002180022,43.351510384993844],[-124.31369566985668,43.38844995168951],[-124.25626696596964,43.5018458308483],[-124.20242755607555,43.667644351133504],[-124.14858814618145,43.91075824357243],[-124.12346308823088,44.10404667395673],[-124.10910591225911,44.26554989578895],[-124.116284500245,44.272422373313724],[-124.0803915603156,44.441657132361314],[-124.08398085430854,44.5009322510125],[-124.05885579635796,44.65899923408233],[-124.05885579635796,44.73803272561725],[-124.07680226632266,44.77153605355053],[-124.04808791437914,44.849710485394844],[-124.00501638646386,45.044717035160346],[-123.97630203452033,45.145227018960185],[-123.96194485854858,45.280099390383896],[-123.9727127405274,45.33679732996329],[-123.96194485854858,45.430434836238355],[-123.97630203452033,45.48970995488954],[-123.95835556455563,45.51032738746387],[-123.94040909459093,45.661521893008924],[-123.94399838858388,45.726810429494286],[-123.98348062250622,45.76203187680876],[-123.96194485854858,45.83677006989069],[-123.96912344653447,45.908072024210234],[-123.99424850448503,45.946729710287094],[-123.93681980059799,45.977655859148584],[-123.93323050660506,46.07129336542365],[-124.00142709247092,46.23709188570885],[-123.90451615466154,46.169226170151695],[-123.85426603876039,46.15719933448334],[-123.8650339207392,46.18984360272602],[-123.78248015890158,46.19843419963199],[-123.757355100951,46.21303821437213],[-123.71787286702866,46.188984543035424],[-123.67480133911339,46.215615393443926],[-123.62096192921928,46.215615393443926],[-123.54917604936048,46.25942743766437]]]}},{"type":"Feature","id":"32","properties":{"name":"Nevada"},"geometry":{"type":"Polygon","coordinates":[[[-119.9993642903429,41.99419607385073],[-119.9993642903429,41.99505513354133],[-119.2097196118961,41.99333701416013],[-118.69645057090571,41.99161889477894],[-118.60312892708927,41.99419607385073],[-117.62325166701666,41.99849137230372],[-117.02742886418864,42.00020949168491],[-116.36699876948768,41.995914193231926],[-115.31533562955629,41.995914193231926],[-115.03178140411403,41.995914193231926],[-114.80565588255882,42.0019276110661],[-114.5974768309683,41.99419607385073],[-114.46826224722247,41.995914193231926],[-114.04113626206261,41.99333701416013],[-114.04113626206261,41.00026401183011],[-114.04472555605555,40.771754134131335],[-114.04472555605555,40.23226464843648],[-114.0483148500485,40.10426475453754],[-114.0483148500485,38.677366608456076],[-114.05190414404143,38.404185626846264],[-114.0483148500485,38.14818583904838],[-114.05190414404143,37.99956851257512],[-114.0483148500485,37.76590427673276],[-114.05190414404143,37.756454620136196],[-114.05190414404143,37.00048209241092],[-114.05190414404143,36.62507300762007],[-114.04472555605555,36.39140877177771],[-114.0483148500485,36.193825042940425],[-114.0662613200132,36.18093914758147],[-114.15240437584376,36.02373122420224],[-114.2385474316743,36.01428156760567],[-114.31392260552605,36.05809361182611],[-114.30674401754017,36.082147283162826],[-114.37135130941309,36.14314052119521],[-114.4180121313213,36.145717700267],[-114.50415518715187,36.129395566145654],[-114.51133377513774,36.15087205841058],[-114.57235177301773,36.151731118101175],[-114.615423300933,36.13025462583625],[-114.6333697708977,36.14228146150461],[-114.66567341683417,36.117368730477295],[-114.75540576665766,36.090737880068794],[-114.73028070870708,36.02201310482104],[-114.74463788467884,35.98507353812538],[-114.70156635676356,35.901744748137475],[-114.66567341683417,35.87511389772897],[-114.69797706277062,35.85449646515465],[-114.71233423874239,35.80638912248122],[-114.69438776877769,35.755704600736],[-114.7051556507565,35.71189255651556],[-114.68003059280592,35.685261706107056],[-114.69079847478474,35.651758378173774],[-114.65849482884828,35.61911410993109],[-114.65849482884828,35.53063096179961],[-114.68003059280592,35.49970481293812],[-114.66567341683417,35.4498793508835],[-114.62619118291182,35.40950354542545],[-114.60465541895418,35.35366466553665],[-114.57235177301773,35.2007520406104],[-114.57235177301773,35.138899742887425],[-114.64772694686947,35.10196017619175],[-114.61183400694006,35.08306086299862],[-114.6333697708977,35.00145019239192],[-115.16099598785988,35.424107560165595],[-115.41224656736566,35.62512752776527],[-116.25214136171361,36.27715383292832],[-117.3755903815038,37.12676386692866],[-117.83143071860718,37.46523338502384],[-118.05396694616945,37.62501848747487],[-118.50262869528694,37.9488839908299],[-118.857968800588,38.20488377862778],[-119.08409432214322,38.361232642316416],[-119.49327383733836,38.64987669835698],[-119.90604264652646,38.93336639625396],[-119.9993642903429,38.99951399242992],[-120.00654287832877,39.2254466910569],[-120.00295358433584,39.33025197330973],[-120.00295358433584,39.72284225191251],[-119.9993642903429,39.73401002789027],[-119.99577499634995,40.071620486294854],[-119.99577499634995,40.72106961238612],[-119.9993642903429,40.75027764186641],[-119.9993642903429,41.99419607385073]]]}},{"type":"Feature","id":"04","properties":{"name":"Arizona"},"geometry":{"type":"Polygon","coordinates":[[[-114.71951282672826,32.71892859447594],[-114.70156635676356,32.74555944488444],[-114.615423300933,32.73439166890668],[-114.52569095110951,32.7567272208622],[-114.53286953909539,32.79108960848608],[-114.46826224722247,32.84521036899368],[-114.46467295322952,32.91307608455084],[-114.51851236312362,33.02990820247202],[-114.57594106701066,33.036780679996795],[-114.60106612496125,33.025612904019034],[-114.64772694686947,33.04708939628396],[-114.65849482884828,33.03248538154381],[-114.70874494474944,33.090901440504396],[-114.68361988679887,33.148458439774394],[-114.67644129881297,33.27044491583915],[-114.73028070870708,33.30566636315363],[-114.69797706277062,33.36150524304242],[-114.72669141471414,33.40531728726287],[-114.65849482884828,33.41304882447824],[-114.55799459704596,33.53159906178061],[-114.52569095110951,33.55221649435494],[-114.54004812708126,33.591733240122394],[-114.52569095110951,33.68622980608806],[-114.49697659916599,33.69653852237522],[-114.50415518715187,33.76010893947939],[-114.52928024510244,33.81508875967759],[-114.52569095110951,33.85890080389803],[-114.50415518715187,33.864055162041616],[-114.51133377513774,33.911303445024444],[-114.53645883308832,33.92848463883638],[-114.435958601286,34.02813556294562],[-114.435958601286,34.08741068159681],[-114.40724424934248,34.111464352933524],[-114.32469048750487,34.13637708396083],[-114.28879754757547,34.17073947158471],[-114.22777954969548,34.188779725087244],[-114.22419025570255,34.20510185920859],[-114.13445790587905,34.260940739097386],[-114.13804719987199,34.303034663936636],[-114.17752943379433,34.349423887228866],[-114.22777954969548,34.365746021350205],[-114.33904766347663,34.4516519904099],[-114.38570848538485,34.457665408244075],[-114.37852989739896,34.507490870298696],[-114.4718515412154,34.71280613635136],[-114.55440530305303,34.76692689685896],[-114.5795303610036,34.82620201551015],[-114.63695906489065,34.87516841787417],[-114.6333697708977,35.00145019239192],[-114.61183400694006,35.08306086299862],[-114.64772694686947,35.10196017619175],[-114.57235177301773,35.138899742887425],[-114.57235177301773,35.2007520406104],[-114.60465541895418,35.35366466553665],[-114.62619118291182,35.40950354542545],[-114.66567341683417,35.4498793508835],[-114.68003059280592,35.49970481293812],[-114.65849482884828,35.53063096179961],[-114.65849482884828,35.61911410993109],[-114.69079847478474,35.651758378173774],[-114.68003059280592,35.685261706107056],[-114.7051556507565,35.71189255651556],[-114.69438776877769,35.755704600736],[-114.71233423874239,35.80638912248122],[-114.69797706277062,35.85449646515465],[-114.66567341683417,35.87511389772897],[-114.70156635676356,35.901744748137475],[-114.74463788467884,35.98507353812538],[-114.73028070870708,36.02201310482104],[-114.75540576665766,36.090737880068794],[-114.66567341683417,36.117368730477295],[-114.6333697708977,36.14228146150461],[-114.615423300933,36.13025462583625],[-114.57235177301773,36.151731118101175],[-114.51133377513774,36.15087205841058],[-114.50415518715187,36.129395566145654],[-114.4180121313213,36.145717700267],[-114.37135130941309,36.14314052119521],[-114.30674401754017,36.082147283162826],[-114.31392260552605,36.05809361182611],[-114.2385474316743,36.01428156760567],[-114.15240437584376,36.02373122420224],[-114.0662613200132,36.18093914758147],[-114.0483148500485,36.193825042940425],[-114.04472555605555,36.39140877177771],[-114.05190414404143,36.62507300762007],[-114.05190414404143,37.00048209241092],[-113.33404534545345,37.00048209241092],[-112.53722207902078,37.00048209241092],[-111.41377305923059,37.00134115210152],[-111.06561154191542,37.002200211792115],[-110.49132450304502,37.0039183311733],[-110.46978873908739,36.99790491333913],[-109.6263046507465,36.99790491333913],[-109.04483902389023,36.998763973029725],[-109.04483902389023,35.54609403623036],[-109.04842831788318,35.34249688955889],[-109.04483902389023,35.31672509884098],[-109.04483902389023,34.52209488503885],[-109.04842831788318,33.999786593155925],[-109.04483902389023,33.87522293801938],[-109.04842831788318,33.77814919298192],[-109.04842831788318,31.332406253852533],[-109.27814313343133,31.334124373233728],[-109.99959122601226,31.33326531354313],[-110.45902085710857,31.332406253852533],[-111.07637942389424,31.332406253852533],[-112.36493596735967,31.74131866657666],[-113.12586629386293,31.97240572334723],[-113.4919742811428,32.08923784126841],[-114.8128344705447,32.49385495553955],[-114.79488800058,32.55055289511895],[-114.8128344705447,32.56515690985909],[-114.80924517655176,32.61670049129491],[-114.78053082460823,32.63044544634446],[-114.71951282672826,32.71892859447594]]]}}]}